TIANMU-1 07             
1 57399U 23101A   26065.57454230  .00008352  00000+0  29795-3 0  9991
2 57399  97.2728 118.5929 0004609 142.4105 217.7458 15.29118809145964
STARLINK-31182          
1 59159U 24044H   26068.45386158 -.00003358  00000+0 -11253-3 0  9990
2 59159  42.9980 108.0029 0000388 227.2517 132.8302 15.27593573113560
